#!/usr/bin/env bash

# source aircraft model, flight dynamics model, and location parameters
. $HOME/fgdemo.conf

# setup environment variables for FlightGear
export FG_HOME=$HOME/.fgfs
export FG_AIRCRAFT=$FG_HOME/Aircraft/org.flightgear.fgaddon.stable_2020/Aircraft

# FlightGear tabula rasa
rm -fr $FG_HOME
mkdir -p $FG_AIRCRAFT

# setup aircraft cache
CACHEDIR=$HOME/Downloads
mkdir -p $CACHEDIR

# add aircraft model to FlightGear
echo "Add aircraft $AIRCRAFT_MODEL to FlightGear"
unzip -q $CACHEDIR/$AIRCRAFT_MODEL.zip -d $FG_AIRCRAFT

# run FlightGear
fgfs \
    --enable-hud-3d \
    --enable-ai-models \
    --enable-ai-traffic \
    --disable-rembrandt \
    --fog-nicest \
    --enable-distance-attenuation \
    --enable-horizon-effect \
    --enable-specular-highlight \
    --enable-fullscreen \
    --enable-sound \
    --shading-smooth \
    --aircraft=$FLIGHT_MODEL \
    --enable-auto-coordination \
    --timeofday=$TIMEOFDAY \
    --season=summer \
    --metar='XXXX 012345Z 15003KT 19SM FEW072 FEW350 25/07 Q1028 NOSIG' \
    --disable-real-weather-fetch \
    --enable-clouds3d \
    --disable-terrasync \
    --fg-scenery=/usr/share/kiosk-mode/Scenery \
    "${EXTRA_ARGS[@]}"

sleep 1.0
exec "$0" "$@"
